NORAD_CAT_ID,OBJECT_NAME,OBJECT_TYPE,EPOCH,MEAN_MOTION,ECCENTRICITY,INCLINATION,RA_OF_ASC_NODE,ARG_OF_PERICENTER,MEAN_ANOMALY,BSTAR,MEAN_MOTION_DOT,MEAN_MOTION_DDOT,TLE_LINE0,TLE_LINE1,TLE_LINE2,SEMIMAJOR_AXIS,PERIOD,APOGEE,PERIGEE,DECAYED
54170.0,STARLINK-5155,PAYLOAD,2024-08-01 23:12:38,15.08846363,0.0001409,53.2163,109.0982,92.0284,268.087,0.00015604,2.197e-05,0.0,0 STARLINK-5155,1 54170U 22141P   24214.96711116  .00002197  00000-0  15604-3 0  9990,2 54170  53.2163 109.0982 0001409  92.0284 268.0870 15.08846363 97581,6917.861,95.437,540.701,538.751,0.0
54170.0,STARLINK-5155,PAYLOAD,2024-08-02 00:48:01,15.0885608,0.0001357,53.2168,108.7971,95.6224,264.4923,0.00013833,1.915e-05,0.0,0 STARLINK-5155,1 54170U 22141P   24215.03334504  .00001915  00000-0  13833-3 0  9990,2 54170  53.2168 108.7971 0001357  95.6224 264.4923 15.08856080 97581,6917.831,95.437,540.635,538.757,0.0
54170.0,STARLINK-5155,PAYLOAD,2024-08-02 10:20:21,15.08835539,0.0001568,53.2184,107.0109,85.9295,274.1876,2.8888e-05,1.72e-06,0.0,0 STARLINK-5155,1 54170U 22141P   24215.43080139  .00000172  00000-0  28888-4 0  9997,2 54170  53.2184 107.0109 0001568  85.9295 274.1876 15.08835539 97646,6917.894,95.438,540.844,538.674,0.0
54170.0,STARLINK-5155,PAYLOAD,2024-08-02 23:03:27,15.08826605,0.0001732,53.2183,104.6309,93.4544,266.6647,-1.1098e-05,-4.65e-06,0.0,0 STARLINK-5155,1 54170U 22141P   24215.96073337 -.00000465  00000-0 -11098-4 0  9999,2 54170  53.2183 104.6309 0001732  93.4544 266.6647 15.08826605 97730,6917.921,95.438,540.985,538.588,0.0
54170.0,STARLINK-5155,PAYLOAD,2024-08-03 10:11:08,15.08838512,0.0001527,53.219,102.5523,90.8418,269.2749,-5.0004e-05,-1.084e-05,0.0,0 STARLINK-5155,1 54170U 22141P   24216.42440723 -.00001084  00000-0 -50004-4 0  9996,2 54170  53.2190 102.5523 0001527  90.8418 269.2749 15.08838512 97794,6917.885,95.438,540.806,538.694,0.0
54170.0,STARLINK-5155,PAYLOAD,2024-08-03 21:18:49,15.08854045,0.0001389,53.2172,100.4734,84.3769,275.7381,-7.1721e-05,-1.43e-05,0.0,0 STARLINK-5155,1 54170U 22141P   24216.88807853 -.00001430  00000-0 -71721-4 0  9991,2 54170  53.2172 100.4734 0001389  84.3769 275.7381 15.08854045 97869,6917.837,95.437,540.663,538.742,0.0
54170.0,STARLINK-5155,PAYLOAD,2024-08-03 22:54:12,15.08858623,0.0001398,53.218,100.1745,92.1212,267.994,-3.6745e-05,-8.73e-06,0.0,0 STARLINK-5155,1 54170U 22141P   24216.95431331 -.00000873  00000-0 -36745-4 0  9990,2 54170  53.2180 100.1745 0001398  92.1212 267.9940 15.08858623 97889,6917.823,95.436,540.656,538.721,0.0
54170.0,STARLINK-5155,PAYLOAD,2024-08-04 02:04:58,15.08860591,0.0001406,53.218,99.5791,93.4781,266.6372,-1.3933e-05,-5.1e-06,0.0,0 STARLINK-5155,1 54170U 22141P   24217.08679007 -.00000510  00000-0 -13933-4 0  9991,2 54170  53.2180  99.5791 0001406  93.4781 266.6372 15.08860591 97899,6917.817,95.436,540.655,538.71,0.0
54170.0,STARLINK-5155,PAYLOAD,2024-08-04 21:09:36,15.08843609,0.0001487,53.2171,96.0127,82.9387,277.1775,0.00021621,3.155e-05,0.0,0 STARLINK-5155,1 54170U 22141P   24217.88167469  .00003155  00000-0  21621-3 0  9991,2 54170  53.2171  96.0127 0001487  82.9387 277.1775 15.08843609 98018,6917.869,95.437,540.763,538.706,0.0
54170.0,STARLINK-5155,PAYLOAD,2024-08-04 22:44:59,15.08846051,0.0001506,53.2175,95.7139,91.7743,268.3422,0.00023264,3.417e-05,0.0,0 STARLINK-5155,1 54170U 22141P   24217.94791276  .00003417  00000-0  23264-3 0  9993,2 54170  53.2175  95.7139 0001506  91.7743 268.3422 15.08846051 98034,6917.862,95.437,540.769,538.685,0.0
54170.0,STARLINK-5155,PAYLOAD,2024-08-05 01:55:45,15.08856163,0.0001463,53.2173,95.1177,92.1656,267.9503,0.00022935,3.366e-05,0.0,0 STARLINK-5155,1 54170U 22141P   24218.08038601  .00003366  00000-0  22935-3 0  9992,2 54170  53.2173  95.1177 0001463  92.1656 267.9503 15.08856163 98049,6917.831,95.437,540.708,538.684,0.0
54170.0,STARLINK-5155,PAYLOAD,2024-08-05 21:00:25,15.08832192,0.0001532,53.2178,91.5505,102.4552,257.6611,-5.5514e-05,-1.171e-05,0.0,0 STARLINK-5155,1 54170U 22141P   24218.87529065 -.00001171  00000-0 -55514-4 0  9992,2 54170  53.2178  91.5505 0001532 102.4552 257.6611 15.08832192 98161,6917.904,95.438,540.829,538.709,0.0
54170.0,STARLINK-5155,PAYLOAD,2024-08-05 22:35:48,15.08833959,0.0001366,53.2177,91.255,85.2228,274.892,-5.0088e-05,-1.085e-05,0.0,0 STARLINK-5155,1 54170U 22141P   24218.94153059 -.00001085  00000-0 -50088-4 0  9991,2 54170  53.2177  91.2550 0001366  85.2228 274.8920 15.08833959 98188,6917.899,95.438,540.709,538.819,0.0
54170.0,STARLINK-5155,PAYLOAD,2024-08-06 08:08:06,15.08838524,0.0001273,53.2172,89.4703,78.9756,281.1379,-0.0001134,-2.092e-05,0.0,0 STARLINK-5155,1 54170U 22141P   24219.33896942 -.00002092  00000-0 -11340-3 0  9996,2 54170  53.2172  89.4703 0001273  78.9756 281.1379 15.08838524 98243,6917.885,95.438,540.631,538.869,0.0
54170.0,STARLINK-5155,PAYLOAD,2024-08-06 20:51:11,15.08842076,0.0001258,53.217,87.0896,83.5153,276.5982,-1.1678e-05,-4.74e-06,0.0,0 STARLINK-5155,1 54170U 22141P   24219.86888705 -.00000474  00000-0 -11678-4 0  9999,2 54170  53.2170  87.0896 0001258  83.5153 276.5982 15.08842076 98317,6917.874,95.437,540.609,538.869,0.0
54170.0,STARLINK-5155,PAYLOAD,2024-08-07 01:37:20,15.08845481,0.0001313,53.2159,86.197,73.5477,286.5659,7.9173e-05,9.73e-06,0.0,0 STARLINK-5155,1 54170U 22141P   24220.06760284  .00000973  00000-0  79173-4 0  9990,2 54170  53.2159  86.1970 0001313  73.5477 286.5659 15.08845481 98356,6917.864,95.437,540.637,538.82,0.0
54170.0,STARLINK-5155,PAYLOAD,2024-08-07 20:41:59,15.08828431,0.0001516,53.2166,82.6248,63.8083,296.3065,0.00045032,6.884e-05,0.0,0 STARLINK-5155,1 54170U 22141P   24220.86249383  .00006884  00000-0  45032-3 0  9993,2 54170  53.2166  82.6248 0001516  63.8083 296.3065 15.08828431 98461,6917.916,95.438,540.83,538.732,0.0
54170.0,STARLINK-5155,PAYLOAD,2024-08-08 22:08:08,15.08846108,0.0001351,53.2169,77.8713,77.8738,282.2405,5.4141e-05,5.74e-06,0.0,0 STARLINK-5155,1 54170U 22141P   24221.92232606  .00000574  00000-0  54141-4 0  9993,2 54170  53.2169  77.8713 0001351  77.8738 282.2405 15.08846108 98638,6917.862,95.437,540.661,538.792,0.0
54170.0,STARLINK-5155,PAYLOAD,2024-08-08 23:43:31,15.08851849,0.0001178,53.2168,77.5722,102.686,257.4264,0.0001605,2.268e-05,0.0,0 STARLINK-5155,1 54170U 22141P   24221.98856228  .00002268  00000-0  16050-3 0  9999,2 54170  53.2168  77.5722 0001178 102.6860 257.4264 15.08851849 98639,6917.844,95.437,540.524,538.894,0.0
54170.0,STARLINK-5155,PAYLOAD,2024-08-09 07:40:28,15.08836853,0.0001732,53.2178,76.0827,83.0898,277.0291,3.3735e-05,2.49e-06,0.0,0 STARLINK-5155,1 54170U 22141P   24222.31977539  .00000249  00000-0  33735-4 0  9993,2 54170  53.2178  76.0827 0001732  83.0898 277.0291 15.08836853 98680,6917.89,95.438,540.953,538.557,0.0
54170.0,STARLINK-5155,PAYLOAD,2024-08-09 14:02:01,15.08836165,0.0001573,53.2174,74.9,75.8335,284.2831,6.0067e-05,6.68e-06,0.0,0 STARLINK-5155,1 54170U 22141P   24222.58473414  .00000668  00000-0  60067-4 0  9998,2 54170  53.2174  74.9000 0001573  75.8335 284.2831 15.08836165 98736,6917.892,95.438,540.845,538.669,0.0
54170.0,STARLINK-5155,PAYLOAD,2024-08-09 20:23:33,15.08845789,0.0001586,53.2174,73.7098,75.0,285.1168,0.00015463,2.174e-05,0.0,0 STARLINK-5155,1 54170U 22141P   24222.84968986  .00002174  00000-0  15463-3 0  9993,2 54170  53.2174  73.7098 0001586  75.0000 285.1168 15.08845789 98763,6917.863,95.437,540.825,538.631,0.0
54170.0,STARLINK-5155,PAYLOAD,2024-08-09 23:34:18,15.08855737,0.0001536,53.2178,73.1128,67.8885,292.227,0.00025601,3.79e-05,0.0,0 STARLINK-5155,1 54170U 22141P   24222.98216390  .00003790  00000-0  25601-3 0  9993,2 54170  53.2178  73.1128 0001536  67.8885 292.2270 15.08855737 98789,6917.832,95.437,540.76,538.635,0.0
54170.0,STARLINK-5155,PAYLOAD,2024-08-10 13:52:47,15.08839002,0.0001053,53.2172,70.4389,80.0116,280.0995,-8.1545e-05,-1.585e-05,0.0,0 STARLINK-5155,1 54170U 22141P   24223.57833309 -.00001585  00000-0 -81545-4 0  9996,2 54170  53.2172  70.4389 0001053  80.0116 280.0995 15.08839002 98887,6917.883,95.438,540.477,539.02,0.0
54170.0,STARLINK-5155,PAYLOAD,2024-08-10 20:14:20,15.08846696,0.0001451,53.2166,69.2514,87.7416,272.3742,5.408e-05,5.73e-06,0.0,0 STARLINK-5155,1 54170U 22141P   24223.84328979  .00000573  00000-0  54080-4 0  9996,2 54170  53.2166  69.2514 0001451  87.7416 272.3742 15.08846696 98910,6917.86,95.437,540.729,538.721,0.0
54170.0,STARLINK-5155,PAYLOAD,2024-08-11 20:05:06,15.08857132,0.0002007,53.2142,64.7877,96.5296,263.5925,0.00041252,6.286e-05,0.0,0 STARLINK-5155,1 54170U 22141P   24224.83688573  .00006286  00000-0  41252-3 0  9998,2 54170  53.2142  64.7877 0002007  96.5296 263.5925 15.08857132 99078,6917.828,95.436,541.081,538.305,0.0
54170.0,STARLINK-5155,PAYLOAD,2024-08-12 13:34:21,15.08846897,0.0001862,53.2173,61.518,98.6779,261.4424,0.00015429,2.169e-05,0.0,0 STARLINK-5155,1 54170U 22141P   24225.56552812  .00002169  00000-0  15429-3 0  9998,2 54170  53.2173  61.5180 0001862  98.6779 261.4424 15.08846897 99180,6917.859,95.437,541.012,538.436,0.0
54170.0,STARLINK-5155,PAYLOAD,2024-08-12 19:55:53,15.08861357,0.0001095,53.217,60.3286,79.3715,280.7401,0.00045321,6.936e-05,0.0,0 STARLINK-5155,1 54170U 22141P   24225.83048260  .00006936  00000-0  45321-3 0  9995,2 54170  53.2170  60.3286 0001095  79.3715 280.7401 15.08861357 99216,6917.815,95.436,540.438,538.923,0.0
54170.0,STARLINK-5155,PAYLOAD,2024-08-12 21:31:16,15.08868346,0.0001161,53.2165,60.0293,75.4791,284.633,0.00056594,8.737e-05,0.0,0 STARLINK-5155,1 54170U 22141P   24225.89671939  .00008737  00000-0  56594-3 0  9991,2 54170  53.2165  60.0293 0001161  75.4791 284.6330 15.08868346 99231,6917.794,95.436,540.462,538.856,0.0
54170.0,STARLINK-5155,PAYLOAD,2024-08-13 13:25:10,15.08785403,0.0001734,53.2132,57.0563,94.6552,265.4638,-0.0010067,-0.0001625,0.0,0 STARLINK-5155,1 54170U 22141P   24226.55915217 -.00016250  00000-0 -10067-2 0  9990,2 54170  53.2132  57.0563 0001734  94.6552 265.4638 15.08785403 99325,6918.047,95.441,541.112,538.713,0.0
